CCSDS_OMM_VERS = 2.0
CREATION_DATE  = 
ORIGINATOR     = 

OBJECT_NAME    = DELTA 2 R/B(1)
OBJECT_ID      = 1990-008B
CENTER_NAME    = EARTH
REF_FRAME      = TEME
TIME_SYSTEM    = UTC
MEAN_ELEMENT_THEORY = SGP/SGP4

EPOCH          = 2026-02-07T05:45:37.573344
MEAN_MOTION    = 15.51758166
ECCENTRICITY   = .0095142
INCLINATION    = 35.6060
RA_OF_ASC_NODE = 14.0358
ARG_OF_PERICENTER = 334.6671
MEAN_ANOMALY   = 24.9417

EPHEMERIS_TYPE = 0
CLASSIFICATION_TYPE = U
NORAD_CAT_ID   = 20453
ELEMENT_SET_NO = 999
REV_AT_EPOCH   = 92139
BSTAR          = .11272E-2
MEAN_MOTION_DOT = .85042E-3
MEAN_MOTION_DDOT = 0

CCSDS_OMM_VERS = 2.0
CREATION_DATE  = 
ORIGINATOR     = 

OBJECT_NAME    = COSMOS 2058
OBJECT_ID      = 1990-010A
CENTER_NAME    = EARTH
REF_FRAME      = TEME
TIME_SYSTEM    = UTC
MEAN_ELEMENT_THEORY = SGP/SGP4

EPOCH          = 2026-02-07T12:28:58.283328
MEAN_MOTION    = 15.11043462
ECCENTRICITY   = .00120541
INCLINATION    = 82.4637
RA_OF_ASC_NODE = 77.1489
ARG_OF_PERICENTER = 81.2516
MEAN_ANOMALY   = 279.0078

EPHEMERIS_TYPE = 0
CLASSIFICATION_TYPE = U
NORAD_CAT_ID   = 20465
ELEMENT_SET_NO = 999
REV_AT_EPOCH   = 93768
BSTAR          = .30878972E-3
MEAN_MOTION_DOT = .5198E-4
MEAN_MOTION_DDOT = 0

CCSDS_OMM_VERS = 2.0
CREATION_DATE  = 
ORIGINATOR     = 

OBJECT_NAME    = SL-14 R/B
OBJECT_ID      = 1990-010B
CENTER_NAME    = EARTH
REF_FRAME      = TEME
TIME_SYSTEM    = UTC
MEAN_ELEMENT_THEORY = SGP/SGP4

EPOCH          = 2026-02-07T04:49:08.529024
MEAN_MOTION    = 14.83542264
ECCENTRICITY   = .0020918
INCLINATION    = 82.5030
RA_OF_ASC_NODE = 296.0283
ARG_OF_PERICENTER = 43.5743
MEAN_ANOMALY   = 316.7119

EPHEMERIS_TYPE = 0
CLASSIFICATION_TYPE = U
NORAD_CAT_ID   = 20466
ELEMENT_SET_NO = 999
REV_AT_EPOCH   = 92396
BSTAR          = .74413E-4
MEAN_MOTION_DOT = .639E-5
MEAN_MOTION_DDOT = 0

CCSDS_OMM_VERS = 2.0
CREATION_DATE  = 
ORIGINATOR     = 

OBJECT_NAME    = SL-14 R/B
OBJECT_ID      = 1990-018B
CENTER_NAME    = EARTH
REF_FRAME      = TEME
TIME_SYSTEM    = UTC
MEAN_ELEMENT_THEORY = SGP/SGP4

EPOCH          = 2026-02-07T15:52:56.883936
MEAN_MOTION    = 14.82113636
ECCENTRICITY   = .0016132
INCLINATION    = 82.5182
RA_OF_ASC_NODE = 251.1629
ARG_OF_PERICENTER = 185.9228
MEAN_ANOMALY   = 174.1799

EPHEMERIS_TYPE = 0
CLASSIFICATION_TYPE = U
NORAD_CAT_ID   = 20511
ELEMENT_SET_NO = 999
REV_AT_EPOCH   = 91813
BSTAR          = .62049591E-4
MEAN_MOTION_DOT = .518E-5
MEAN_MOTION_DDOT = 0

CCSDS_OMM_VERS = 2.0
CREATION_DATE  = 
ORIGINATOR     = 

OBJECT_NAME    = HST
OBJECT_ID      = 1990-037B
CENTER_NAME    = EARTH
REF_FRAME      = TEME
TIME_SYSTEM    = UTC
MEAN_ELEMENT_THEORY = SGP/SGP4

EPOCH          = 2026-02-06T19:31:08.679360
MEAN_MOTION    = 15.28986369
ECCENTRICITY   = .00018827
INCLINATION    = 28.4665
RA_OF_ASC_NODE = 250.5538
ARG_OF_PERICENTER = 124.2340
MEAN_ANOMALY   = 235.8434

EPHEMERIS_TYPE = 0
CLASSIFICATION_TYPE = U
NORAD_CAT_ID   = 20580
ELEMENT_SET_NO = 999
REV_AT_EPOCH   = 76858
BSTAR          = .28897265E-3
MEAN_MOTION_DOT = .8603E-4
MEAN_MOTION_DDOT = 0

CCSDS_OMM_VERS = 2.0
CREATION_DATE  = 
ORIGINATOR     = 

OBJECT_NAME    = SL-16 R/B
OBJECT_ID      = 1990-046B
CENTER_NAME    = EARTH
REF_FRAME      = TEME
TIME_SYSTEM    = UTC
MEAN_ELEMENT_THEORY = SGP/SGP4

EPOCH          = 2026-02-07T07:11:35.503872
MEAN_MOTION    = 14.15005591
ECCENTRICITY   = .0014621
INCLINATION    = 71.0001
RA_OF_ASC_NODE = 1.7349
ARG_OF_PERICENTER = 341.8563
MEAN_ANOMALY   = 18.2035

EPHEMERIS_TYPE = 0
CLASSIFICATION_TYPE = U
NORAD_CAT_ID   = 20625
ELEMENT_SET_NO = 999
REV_AT_EPOCH   = 84409
BSTAR          = .95213E-4
MEAN_MOTION_DOT = .137E-5
MEAN_MOTION_DDOT = 0

CCSDS_OMM_VERS = 2.0
CREATION_DATE  = 
ORIGINATOR     = 

OBJECT_NAME    = COSMOS 2084
OBJECT_ID      = 1990-055A
CENTER_NAME    = EARTH
REF_FRAME      = TEME
TIME_SYSTEM    = UTC
MEAN_ELEMENT_THEORY = SGP/SGP4

EPOCH          = 2026-02-07T10:26:14.200512
MEAN_MOTION    = 15.05455558
ECCENTRICITY   = .00218781
INCLINATION    = 62.7898
RA_OF_ASC_NODE = 78.7513
ARG_OF_PERICENTER = 183.7599
MEAN_ANOMALY   = 176.3341

EPHEMERIS_TYPE = 0
CLASSIFICATION_TYPE = U
NORAD_CAT_ID   = 20663
ELEMENT_SET_NO = 999
REV_AT_EPOCH   = 93176
BSTAR          = .25210679E-3
MEAN_MOTION_DOT = .3455E-4
MEAN_MOTION_DDOT = 0

CCSDS_OMM_VERS = 2.0
CREATION_DATE  = 
ORIGINATOR     = 

OBJECT_NAME    = SL-6 R/B(2)
OBJECT_ID      = 1990-055D
CENTER_NAME    = EARTH
REF_FRAME      = TEME
TIME_SYSTEM    = UTC
MEAN_ELEMENT_THEORY = SGP/SGP4

EPOCH          = 2026-02-07T07:26:34.488960
MEAN_MOTION    = 15.03433149
ECCENTRICITY   = .0020222
INCLINATION    = 62.7851
RA_OF_ASC_NODE = 357.1471
ARG_OF_PERICENTER = 338.2962
MEAN_ANOMALY   = 21.7278

EPHEMERIS_TYPE = 0
CLASSIFICATION_TYPE = U
NORAD_CAT_ID   = 20666
ELEMENT_SET_NO = 999
REV_AT_EPOCH   = 93362
BSTAR          = .28059E-3
MEAN_MOTION_DOT = .3656E-4
MEAN_MOTION_DDOT = 0

CCSDS_OMM_VERS = 2.0
CREATION_DATE  = 
ORIGINATOR     = 

OBJECT_NAME    = SL-8 R/B
OBJECT_ID      = 1990-078B
CENTER_NAME    = EARTH
REF_FRAME      = TEME
TIME_SYSTEM    = UTC
MEAN_ELEMENT_THEORY = SGP/SGP4

EPOCH          = 2026-02-07T15:53:40.084800
MEAN_MOTION    = 14.88072324
ECCENTRICITY   = .03671223
INCLINATION    = 82.9021
RA_OF_ASC_NODE = 278.2928
ARG_OF_PERICENTER = 114.5970
MEAN_ANOMALY   = 249.3966

EPHEMERIS_TYPE = 0
CLASSIFICATION_TYPE = U
NORAD_CAT_ID   = 20775
ELEMENT_SET_NO = 999
REV_AT_EPOCH   = 80483
BSTAR          = .5910374E-3
MEAN_MOTION_DOT = .20034E-3
MEAN_MOTION_DDOT = 0

CCSDS_OMM_VERS = 2.0
CREATION_DATE  = 
ORIGINATOR     = 

OBJECT_NAME    = SL-8 R/B
OBJECT_ID      = 1991-006B
CENTER_NAME    = EARTH
REF_FRAME      = TEME
TIME_SYSTEM    = UTC
MEAN_ELEMENT_THEORY = SGP/SGP4

EPOCH          = 2026-02-07T13:18:39.505824
MEAN_MOTION    = 13.77491996
ECCENTRICITY   = .002358
INCLINATION    = 82.9430
RA_OF_ASC_NODE = 192.4503
ARG_OF_PERICENTER = 118.4715
MEAN_ANOMALY   = 311.9883

EPHEMERIS_TYPE = 0
CLASSIFICATION_TYPE = U
NORAD_CAT_ID   = 21088
ELEMENT_SET_NO = 999
REV_AT_EPOCH   = 75992
BSTAR          = .12287124E-4
MEAN_MOTION_DOT = .28E-6
MEAN_MOTION_DDOT = 0

CCSDS_OMM_VERS = 2.0
CREATION_DATE  = 
ORIGINATOR     = 

OBJECT_NAME    = OKEAN-3
OBJECT_ID      = 1991-039A
CENTER_NAME    = EARTH
REF_FRAME      = TEME
TIME_SYSTEM    = UTC
MEAN_ELEMENT_THEORY = SGP/SGP4

EPOCH          = 2026-02-07T08:30:36.213120
MEAN_MOTION    = 15.04563620
ECCENTRICITY   = .00164815
INCLINATION    = 82.5182
RA_OF_ASC_NODE = 6.2222
ARG_OF_PERICENTER = 76.3261
MEAN_ANOMALY   = 283.9800

EPHEMERIS_TYPE = 0
CLASSIFICATION_TYPE = U
NORAD_CAT_ID   = 21397
ELEMENT_SET_NO = 999
REV_AT_EPOCH   = 86047
BSTAR          = .32110043E-3
MEAN_MOTION_DOT = .4543E-4
MEAN_MOTION_DDOT = 0

CCSDS_OMM_VERS = 2.0
CREATION_DATE  = 
ORIGINATOR     = 

OBJECT_NAME    = COSMOS 2151
OBJECT_ID      = 1991-042A
CENTER_NAME    = EARTH
REF_FRAME      = TEME
TIME_SYSTEM    = UTC
MEAN_ELEMENT_THEORY = SGP/SGP4

EPOCH          = 2026-02-07T14:22:09.055488
MEAN_MOTION    = 14.99988895
ECCENTRICITY   = .00131859
INCLINATION    = 82.4964
RA_OF_ASC_NODE = 112.7026
ARG_OF_PERICENTER = 155.0802
MEAN_ANOMALY   = 205.1062

EPHEMERIS_TYPE = 0
CLASSIFICATION_TYPE = U
NORAD_CAT_ID   = 21422
ELEMENT_SET_NO = 999
REV_AT_EPOCH   = 85868
BSTAR          = .21338078E-3
MEAN_MOTION_DOT = .2683E-4
MEAN_MOTION_DDOT = 0

